#dP2023  4 10  0  0  0.00000000     289 d+D   IGS20 FIT AIUB
## 2257  86400.00000000   300.00000000 60044 0.0000000000000
+  119   G01G02G03G04G05G06G07G08G09G10G11G12G13G14G15G16G17
+        G18G19G20G21G22G23G24G25G26G27G28G29G30G31G32R01R02
+        R03R04R05R07R08R09R11R12R13R14R15R16R17R18R19R20R21
+        R24R25E01E02E03E04E05E07E08E09E10E11E12E13E14E15E18
+        E19E21E24E25E26E27E30E31E33E34E36C06C07C08C09C10C11
+        C12C13C14C16C19C20C21C22C23C24C25C26C27C28C29C30C32
+        C33C34C35C36C37C38C39C40C41C42C43C44C45C46J02J03J04
++         5  5  5  5  5  5  5  5  5  5  5  5  5  5  5  5  5
++         5  5  5  5  5  5  5  5  5  5  5  5  5  5  5  5  5
++         5  5  5  5  5  5  5  5  5  5  5  5  5  5  5  5 10
++         5  5  5  5  5  5  5  5  5  5  5  5  5  5  5  5  5
++         5  5  5  5  5  5  5  5  5  5  5  5  5  5  5  5  5
++         5  5  5  5  5  5  5  5  5  5  5  5  5  5  5  5  5
++         5  5  5  5  5  5  5  5  5  5  5  5  5  5  5  5  5
%c M  cc GPS ccc cccc cccc cccc cccc ccccc ccccc ccccc ccccc
%c cc cc ccc ccc cccc cccc cccc cccc ccccc ccccc ccccc ccccc
%f  1.2500000  1.025000000  0.00000000000  0.000000000000000
%f  0.0000000  0.000000000  0.00000000000  0.000000000000000
%i    0    0    0    0      0      0      0      0         0
%i    0    0    0    0      0      0      0      0         0
/* Center for Orbit Determination in Europe (CODE)                              
/* MGEX orbits and clocks for year-day 2023-1000                                
/* Middle day of a 3-day long-arc multi-GNSS solution                           
/* Systems considered: GPS/GLONASS/Galileo/BeiDou/QZSS                          
/* Product reference - DOI 10.7892/boris.75882.3                                
/* PCV:IGS20      OL/AL:FES2014b NONE     YN ORB:CoN CLK:CoN                    
*  2023  4 10 19 40  0.00000000
PG01  17158.901899   6362.888397  19055.174427    194.459912
PG02 -15002.808134   3497.687563 -21139.823480   -607.276609
PG03  18209.307048  -5622.221824  18323.475740   -332.145205
PG04  26458.154884      8.126247  -2937.457859     13.692922
PG05 -11097.749303 -10857.151032 -21708.077136   -122.900235
PG06  -3343.584324 -23559.724884  11756.281069    586.335331
PG07  12230.023275  -9282.014103 -21192.321758    204.265137
PG08  24147.575602   6924.536254  -9283.873161   -117.121384
PG09  21931.455065  -8386.291365 -12527.727283   -182.743846
PG10 -10205.755413  23643.279049   5973.650430    -32.275830
PG11 -12385.296699 -23415.416124  -2185.748739   -158.210179
PG12 -17981.685615   2080.513507  19123.378387   -362.326552
PG13 -18435.799264 -13233.889269 -14138.012520    503.809098
PG14  12955.068153 -22894.989082   3070.719927     21.194882
PG15 -24803.654326  -4506.487301  -9230.928657     29.452963
PG16   7800.938167  14088.904190 -21344.915327   -509.757219
PG17   9478.115411 -13506.191711  21265.742593    709.940966
PG18  -9462.547021  13095.592696 -21051.614233   -218.428563
PG19  -1492.468275 -15082.466060  21607.929115    301.899971
PG20  -5143.689312 -19618.969159 -17217.228467    439.791857
PG21  19561.611152  13261.170866  13489.190897    154.257570
PG22   5149.278054  15630.542866  21325.756543    461.752242
PG23 -16573.053377  19743.063345  -6064.392673     15.975584
PG24 -19451.063002  -9335.854118  15402.059737   -146.685413
PG25 -18820.321425  13238.670587  12714.091118    434.603450
PG26   -967.354052  22704.829433 -13580.467174    241.809426
PG27  15639.731690  12809.224175 -17686.902623     61.822481
PG28   2531.195513  22963.249477  13082.361019     62.604681
PG29 -24552.801898   3605.393267  -9631.419313   -594.936632
PG30   3624.125594 -20081.164059 -16754.992360   -522.996877
PG31   7268.696180  24518.012615   6105.447891   -213.669267
PG32  -5575.929453  14857.817399  21448.447106   -447.986729
PR01 -23406.385625   5410.228553  -8590.694500     26.397936
PR02 -19750.259980  12601.046883  10064.213819    -23.004588
PR03  -4326.409391  12723.701461  21720.772452     75.754077
PR04  12945.601997   5653.738861  21276.681335    182.776276
PR05  23394.956910  -4291.753370   9262.552996    110.724062
PR07   3628.942841 -12521.252478 -21887.712060     53.503029
PR08 -13172.791956  -5536.969872 -21057.929590    -70.321771
PR09   9130.387145 -19610.786482 -13438.834610    113.961891
PR11  -6072.116966 -17406.757352  17629.711710    -33.682978
PR12 -11328.819416   2168.076616  22771.060820     26.314118
PR13  -9673.282648  18231.085959  14971.768343    -33.881186
PR14  -1878.970805  25231.044686  -3312.926460     24.495610
PR15   6479.575581  16520.485059 -18309.880014     89.848928
PR16  11125.478825  -1880.614409 -22868.731110     13.339075
PR17   7352.620344  16475.254164 -18012.927873    620.011110
PR18  18489.787558  17266.429064  -3488.256715     75.839035
PR19  20048.224211  10627.899142  11653.689476   -228.604105
PR20   9294.383509  -5494.610188  23118.233833    -90.897521
PR21  -8746.029797 -17002.973102  16890.388903      0.965303
PR24  -8848.925876   6666.530683 -22963.538720    160.866021
PR25  -6259.043218 -16928.532743  18034.918629     60.768387
PE01   -902.625890  24432.468134 -16685.409898     -3.558754
PE02    535.919310 -24228.664132  17000.116816     31.578176
PE03  -8574.525628 -16258.008332 -23200.071572   -667.918601
PE04  25873.475928   8165.190461  11847.030825    -97.735407
PE05  14236.450124 -14983.924737 -21179.275960    -78.017178
PE07 -28443.841833   4848.768383   6637.251668    -36.611165
PE08 -25763.974343  -8169.789633 -12074.553446    -65.297598
PE09  28485.010506  -4729.502437  -6471.478552   -900.322370
PE10  20140.177359   9271.609480  19604.352919   -525.531264
PE11  16978.989499  -1954.760499  24159.020307   1561.695910
PE12  19915.146247  18071.401815  12393.908408   -493.502150
PE13 -17264.773788   1104.737076 -24014.687977    -18.435160
PE14  -2146.587041  19613.492454 -23569.637622    193.452309
PE15 -19846.128555 -18299.498108 -12123.875206    -13.663974
PE18 -14789.267345 -15335.238429  16109.715347   -180.717755
PE19   5464.437349  16592.960699  23908.286502  -2796.769290
PE21 -14296.510232  25907.183882   -693.734973   -522.626342
PE24  20761.980562 -11887.237628 -17464.777909    -37.069088
PE25  14502.022810 -25806.423062    360.432256   -603.031720
PE26  -4133.943479  20244.933037 -21195.872739     71.417904
PE27 -20669.940323  12709.433751  16942.682338    -21.903793
PE30 -14458.591711  -8522.757654  24367.866059    -82.413638
PE31  14805.968128   7819.505461 -24407.775004   -520.946728
PE33  10696.339180  26752.545441  -6824.154556   -446.667310
PE34 -10849.826858 -26718.610251   6667.663652    -39.538516
PE36   4624.293760 -19592.369124  21694.651819    -39.418126
PC06  -2417.900060  27759.890690  31747.874711   -197.260971
PC07 -18522.008375  30858.336340 -22058.529152 999999.999999
PC08  -8979.765396  40613.373418  -6305.049705    506.922600
PC09   6410.074614  32129.342137  27255.151004    781.927340
PC10 -10733.309384  31021.432732 -26425.902721    -30.166556
PC11  23530.359444   2264.562562  14881.864308    293.207901
PC12  23503.023475  14878.764125  -2193.806270    563.147278
PC13  -4169.979234  41819.586366    410.684226    249.795916
PC14  25067.947185  -9151.635137   8077.084025    106.079613
PC16  -5038.345625  25835.425943  33225.475415    113.167783
PC19 -23184.677941  15507.628854   1274.260963 999999.999999
PC20 -23562.005739   2906.024427 -14676.248841 999999.999999
PC21   9616.199578  12533.335213  23025.513201   -909.724852
PC22  -9475.980508  19785.210258  17272.463422   -542.305320
PC23   3536.101960 -27005.505951  -6083.510101   -903.323924
PC24  15875.292457   7526.012957 -21691.364054   -187.148848
PC25  13085.758172 -15258.235226 -19375.703364    104.079772
PC26   9843.091302  23235.000607 -11894.656418   -104.486602
PC27 -18537.480391 -18219.488454  10111.849011    123.632728
PC28  -1825.257680 -17917.476312  21315.867201     90.972313
PC29 -17661.865056   7095.925234 -20414.180582 999999.999999
PC30 -25947.569699  -7958.858227  -6443.904202 999999.999999
PC32  -9686.474309 -12466.827000 -22989.342474   -581.561937
PC33  23125.477715 -15557.828565  -1123.810788   -873.046847
PC34  25914.148082   7080.011403   7591.376986    146.018102
PC35   1473.131306  17660.842229 -21580.581484    648.406661
PC36 -13717.702968  14198.841784  19739.364213   -509.137584
PC37  -8571.535909 -24276.877647  10803.491895   -791.333504
PC38 -13198.591871  37376.975725 -14140.920045     70.843097
PC39 -10022.139973  22277.177130  34429.883211     -2.551035
PC40 -25185.697086  25252.010786 -22686.012499 999999.999999
PC41  10031.521139 -19872.304912 -16763.339016   -834.135524
PC42  23011.807298  -1725.433856  15721.883157   -743.385711
PC43  18402.922800  -6494.678965  19944.185317     16.010984
PC44  19035.875586  17666.831319 -10275.917540     71.837065
PC45  -3233.368727  27117.115504   5682.278310    -83.476467
PC46 -15961.232662  -5751.421223  22157.673447 999999.999999
PJ02 -33161.306486  25469.158565  10288.498248     -1.477336
PJ03 -23513.787577  18168.294511 -25324.722427      2.104876
PJ04 -27323.985196  32265.990867   6760.314727     94.176094
EOF
